GLOBALSTAR M045         
1 25676U 99019A   25007.13605892 -.00000042  00000+0  45314-3 0  9998
2 25676  51.9984  44.2975 0000389 197.6846 196.6996 12.27054910173868
GLOBALSTAR M019         
1 25677U 99019B   25007.14609366 -.00000153  00000+0 -65496-3 0  9997
2 25677  51.9859 163.3014 0001352  59.2671 111.9864 12.13871360165773
GLOBALSTAR M044         
1 25678U 99019C   25006.79585568 -.00000017  00000+0  92399-3 0  9995
2 25678  51.9973  95.4455 0007199  95.0483  57.5858 11.90247860152106
GLOBALSTAR M025         
1 25770U 99031A   25006.89357972 -.00000049  00000+0  55650-3 0  9993
2 25770  51.9780 172.9185 0001081 175.8316 354.2047 11.22558632463594
GLOBALSTAR M049         
1 25771U 99031B   25006.92111452 -.00000117  00000+0 -17806-2 0  9996
2 25771  51.9834 199.5151 0004684  98.3554 261.7773 11.12111597 99483
GLOBALSTAR M047         
1 25772U 99031C   25006.81114384 -.00000073  00000+0 -81785-4 0  9992
2 25772  51.9799 212.1530 0016224 350.5017   9.5480 11.31925945452833
GLOBALSTAR M052         
1 25773U 99031D   25006.62637475 -.00000079  00000+0 -44649-3 0  9996
2 25773  51.9893 311.1322 0002086 276.2305 254.9610 11.15056365460487
